[{"OBJECT_NAME":"ONEWEB-0704","OBJECT_ID":"2024-188R","EPOCH":"2025-11-24T08:31:10.557120","MEAN_MOTION":13.1037667,"ECCENTRICITY":0.0001696,"INCLINATION":87.8827,"RA_OF_ASC_NODE":77.0544,"ARG_OF_PERICENTER":71.6469,"MEAN_ANOMALY":288.4843,"EPHEMERIS_TYPE":0,"CLASSIFICATION_TYPE":"U","NORAD_CAT_ID":61609,"ELEMENT_SET_NO":999,"REV_AT_EPOCH":5646,"BSTAR":0.00020574,"MEAN_MOTION_DOT":8.4e-7,"MEAN_MOTION_DDOT":0},{"OBJECT_NAME":"ONEWEB-0705","OBJECT_ID":"2024-188S","EPOCH":"2025-11-24T08:38:21.863328","MEAN_MOTION":13.10377498,"ECCENTRICITY":6.9e-5,"INCLINATION":87.8814,"RA_OF_ASC_NODE":77.078,"ARG_OF_PERICENTER":68.2341,"MEAN_ANOMALY":291.8859,"EPHEMERIS_TYPE":0,"CLASSIFICATION_TYPE":"U","NORAD_CAT_ID":61610,"ELEMENT_SET_NO":999,"REV_AT_EPOCH":4863,"BSTAR":0.0010686,"MEAN_MOTION_DOT":3.86e-6,"MEAN_MOTION_DDOT":0},{"OBJECT_NAME":"ONEWEB-0706","OBJECT_ID":"2024-188T","EPOCH":"2025-11-24T08:16:48.363744","MEAN_MOTION":13.10373444,"ECCENTRICITY":0.0001411,"INCLINATION":87.8807,"RA_OF_ASC_NODE":77.1038,"ARG_OF_PERICENTER":82.3562,"MEAN_ANOMALY":277.7726,"EPHEMERIS_TYPE":0,"CLASSIFICATION_TYPE":"U","NORAD_CAT_ID":61611,"ELEMENT_SET_NO":999,"REV_AT_EPOCH":5655,"BSTAR":-0.0010701,"MEAN_MOTION_DOT":-3.61e-6,"MEAN_MOTION_DDOT":0},{"OBJECT_NAME":"ONEWEB-0707","OBJECT_ID":"2024-188U","EPOCH":"2025-11-24T08:26:21.289920","MEAN_MOTION":13.10372436,"ECCENTRICITY":0.0001481,"INCLINATION":87.8824,"RA_OF_ASC_NODE":77.0774,"ARG_OF_PERICENTER":80.7559,"MEAN_ANOMALY":279.3736,"EPHEMERIS_TYPE":0,"CLASSIFICATION_TYPE":"U","NORAD_CAT_ID":61612,"ELEMENT_SET_NO":999,"REV_AT_EPOCH":5649,"BSTAR":-0.000345,"MEAN_MOTION_DOT":-1.08e-6,"MEAN_MOTION_DDOT":0},{"OBJECT_NAME":"ONEWEB-0708","OBJECT_ID":"2024-188V","EPOCH":"2025-11-24T08:52:42.900672","MEAN_MOTION":13.1037461,"ECCENTRICITY":0.0001156,"INCLINATION":87.8804,"RA_OF_ASC_NODE":77.1104,"ARG_OF_PERICENTER":112.6866,"MEAN_ANOMALY":247.4383,"EPHEMERIS_TYPE":0,"CLASSIFICATION_TYPE":"U","NORAD_CAT_ID":61613,"ELEMENT_SET_NO":999,"REV_AT_EPOCH":5647,"BSTAR":0.0020596,"MEAN_MOTION_DOT":7.32e-6,"MEAN_MOTION_DDOT":0}]
