ONEWEB-0704             
1 61609U 24188R   25328.35498330  .00000084  00000+0  20574-3 0  9992
2 61609  87.8827  77.0544 0001696  71.6469 288.4843 13.10376670 56468
ONEWEB-0705             
1 61610U 24188S   25328.35997527  .00000386  00000+0  10686-2 0  9993
2 61610  87.8814  77.0780 0000690  68.2341 291.8859 13.10377498 48636
ONEWEB-0706             
1 61611U 24188T   25328.34500421 -.00000361  00000+0 -10701-2 0  9999
2 61611  87.8807  77.1038 0001411  82.3562 277.7726 13.10373444 56553
ONEWEB-0707             
1 61612U 24188U   25328.35163530 -.00000108  00000+0 -34500-3 0  9990
2 61612  87.8824  77.0774 0001481  80.7559 279.3736 13.10372436 56496
ONEWEB-0708             
1 61613U 24188V   25328.36994098  .00000732  00000+0  20596-2 0  9993
2 61613  87.8804  77.1104 0001156 112.6866 247.4383 13.10374610 56476
